[{"OBJECT_NAME":"QIANFAN-18","OBJECT_ID":"2024-140T","EPOCH":"2026-03-04T15:04:09.128352","MEAN_MOTION":13.51003537,"ECCENTRICITY":0.00132097,"INCLINATION":88.9722,"RA_OF_ASC_NODE":290.503,"ARG_OF_PERICENTER":318.1148,"MEAN_ANOMALY":41.8991,"EPHEMERIS_TYPE":0,"CLASSIFICATION_TYPE":"U","NORAD_CAT_ID":60396,"ELEMENT_SET_NO":999,"REV_AT_EPOCH":7858,"BSTAR":0.00017731249,"MEAN_MOTION_DOT":1.26e-6,"MEAN_MOTION_DDOT":0},{"OBJECT_NAME":"QIANFAN-19","OBJECT_ID":"2024-185A","EPOCH":"2026-03-04T13:59:18.967488","MEAN_MOTION":14.14385922,"ECCENTRICITY":0.00087085,"INCLINATION":88.9758,"RA_OF_ASC_NODE":68.544,"ARG_OF_PERICENTER":53.5448,"MEAN_ANOMALY":306.654,"EPHEMERIS_TYPE":0,"CLASSIFICATION_TYPE":"U","NORAD_CAT_ID":61552,"ELEMENT_SET_NO":999,"REV_AT_EPOCH":8123,"BSTAR":0.00033903024,"MEAN_MOTION_DOT":6.63e-6,"MEAN_MOTION_DDOT":0},{"OBJECT_NAME":"QIANFAN-20","OBJECT_ID":"2024-185B","EPOCH":"2026-03-04T13:50:34.452960","MEAN_MOTION":14.08932257,"ECCENTRICITY":0.00079035,"INCLINATION":88.9755,"RA_OF_ASC_NODE":68.9512,"ARG_OF_PERICENTER":85.082,"MEAN_ANOMALY":275.1266,"EPHEMERIS_TYPE":0,"CLASSIFICATION_TYPE":"U","NORAD_CAT_ID":61553,"ELEMENT_SET_NO":999,"REV_AT_EPOCH":8101,"BSTAR":0.00035947298,"MEAN_MOTION_DOT":6.35e-6,"MEAN_MOTION_DDOT":0},{"OBJECT_NAME":"QIANFAN-21","OBJECT_ID":"2024-185C","EPOCH":"2026-03-04T13:12:38.113632","MEAN_MOTION":14.22726609,"ECCENTRICITY":0.00129861,"INCLINATION":88.9676,"RA_OF_ASC_NODE":67.3778,"ARG_OF_PERICENTER":95.7355,"MEAN_ANOMALY":264.5318,"EPHEMERIS_TYPE":0,"CLASSIFICATION_TYPE":"U","NORAD_CAT_ID":61554,"ELEMENT_SET_NO":999,"REV_AT_EPOCH":8160,"BSTAR":0.00037270272,"MEAN_MOTION_DOT":8.5e-6,"MEAN_MOTION_DDOT":0},{"OBJECT_NAME":"QIANFAN-22","OBJECT_ID":"2024-185D","EPOCH":"2026-03-04T13:36:49.383936","MEAN_MOTION":13.86338157,"ECCENTRICITY":0.00085661,"INCLINATION":88.9739,"RA_OF_ASC_NODE":70.2643,"ARG_OF_PERICENTER":102.5109,"MEAN_ANOMALY":257.7021,"EPHEMERIS_TYPE":0,"CLASSIFICATION_TYPE":"U","NORAD_CAT_ID":61555,"ELEMENT_SET_NO":999,"REV_AT_EPOCH":8027,"BSTAR":0.00025560777,"MEAN_MOTION_DOT":3.09e-6,"MEAN_MOTION_DDOT":0},{"OBJECT_NAME":"QIANFAN-23","OBJECT_ID":"2024-185E","EPOCH":"2026-03-04T14:01:11.881920","MEAN_MOTION":14.16390946,"ECCENTRICITY":0.00096293,"INCLINATION":88.975,"RA_OF_ASC_NODE":68.315,"ARG_OF_PERICENTER":61.4828,"MEAN_ANOMALY":298.7328,"EPHEMERIS_TYPE":0,"CLASSIFICATION_TYPE":"U","NORAD_CAT_ID":61556,"ELEMENT_SET_NO":999,"REV_AT_EPOCH":8133,"BSTAR":0.00035766811,"MEAN_MOTION_DOT":7.25e-6,"MEAN_MOTION_DDOT":0},{"OBJECT_NAME":"QIANFAN-24","OBJECT_ID":"2024-185F","EPOCH":"2026-03-04T13:18:23.663520","MEAN_MOTION":14.23930274,"ECCENTRICITY":0.00107064,"INCLINATION":88.9734,"RA_OF_ASC_NODE":67.5897,"ARG_OF_PERICENTER":41.8984,"MEAN_ANOMALY":318.3026,"EPHEMERIS_TYPE":0,"CLASSIFICATION_TYPE":"U","NORAD_CAT_ID":61557,"ELEMENT_SET_NO":999,"REV_AT_EPOCH":8166,"BSTAR":0.00043451866,"MEAN_MOTION_DOT":1.01e-5,"MEAN_MOTION_DDOT":0},{"OBJECT_NAME":"QIANFAN-25","OBJECT_ID":"2024-185G","EPOCH":"2026-03-04T13:39:47.081088","MEAN_MOTION":14.05993995,"ECCENTRICITY":0.00119217,"INCLINATION":88.9747,"RA_OF_ASC_NODE":68.9098,"ARG_OF_PERICENTER":68.2193,"MEAN_ANOMALY":292.0257,"EPHEMERIS_TYPE":0,"CLASSIFICATION_TYPE":"U","NORAD_CAT_ID":61558,"ELEMENT_SET_NO":999,"REV_AT_EPOCH":8100,"BSTAR":0.00033244005,"MEAN_MOTION_DOT":5.59e-6,"MEAN_MOTION_DDOT":0},{"OBJECT_NAME":"QIANFAN-26","OBJECT_ID":"2024-185H","EPOCH":"2026-03-04T14:14:24.987264","MEAN_MOTION":13.77860868,"ECCENTRICITY":0.00076375,"INCLINATION":88.9745,"RA_OF_ASC_NODE":70.8998,"ARG_OF_PERICENTER":115.1276,"MEAN_ANOMALY":245.0683,"EPHEMERIS_TYPE":0,"CLASSIFICATION_TYPE":"U","NORAD_CAT_ID":61559,"ELEMENT_SET_NO":999,"REV_AT_EPOCH":7994,"BSTAR":0.00028313279,"MEAN_MOTION_DOT":2.96e-6,"MEAN_MOTION_DDOT":0},{"OBJECT_NAME":"QIANFAN-27","OBJECT_ID":"2024-185J","EPOCH":"2026-03-04T13:24:14.116608","MEAN_MOTION":14.27442022,"ECCENTRICITY":0.00087777,"INCLINATION":88.9747,"RA_OF_ASC_NODE":67.3328,"ARG_OF_PERICENTER":35.3752,"MEAN_ANOMALY":324.8023,"EPHEMERIS_TYPE":0,"CLASSIFICATION_TYPE":"U","NORAD_CAT_ID":61560,"ELEMENT_SET_NO":999,"REV_AT_EPOCH":8183,"BSTAR":0.00027907418,"MEAN_MOTION_DOT":6.99e-6,"MEAN_MOTION_DDOT":0},{"OBJECT_NAME":"QIANFAN-28","OBJECT_ID":"2024-185K","EPOCH":"2026-03-04T13:38:46.324608","MEAN_MOTION":14.28210263,"ECCENTRICITY":0.00083921,"INCLINATION":88.9762,"RA_OF_ASC_NODE":67.3387,"ARG_OF_PERICENTER":36.3579,"MEAN_ANOMALY":323.8184,"EPHEMERIS_TYPE":0,"CLASSIFICATION_TYPE":"U","NORAD_CAT_ID":61561,"ELEMENT_SET_NO":999,"REV_AT_EPOCH":8185,"BSTAR":0.00046248663,"MEAN_MOTION_DOT":1.166e-5,"MEAN_MOTION_DDOT":0},{"OBJECT_NAME":"QIANFAN-29","OBJECT_ID":"2024-185L","EPOCH":"2026-03-04T13:51:17.957088","MEAN_MOTION":13.5104318,"ECCENTRICITY":0.0010267,"INCLINATION":88.9718,"RA_OF_ASC_NODE":72.8378,"ARG_OF_PERICENTER":162.5107,"MEAN_ANOMALY":197.64,"EPHEMERIS_TYPE":0,"CLASSIFICATION_TYPE":"U","NORAD_CAT_ID":61562,"ELEMENT_SET_NO":999,"REV_AT_EPOCH":7884,"BSTAR":0.0003134777,"MEAN_MOTION_DOT":2.15e-6,"MEAN_MOTION_DDOT":0},{"OBJECT_NAME":"QIANFAN-30","OBJECT_ID":"2024-185M","EPOCH":"2026-03-04T12:57:39.462048","MEAN_MOTION":13.5001829,"ECCENTRICITY":0.00085862,"INCLINATION":88.9737,"RA_OF_ASC_NODE":72.3985,"ARG_OF_PERICENTER":146.737,"MEAN_ANOMALY":213.4322,"EPHEMERIS_TYPE":0,"CLASSIFICATION_TYPE":"U","NORAD_CAT_ID":61563,"ELEMENT_SET_NO":999,"REV_AT_EPOCH":7910,"BSTAR":0.00030975181,"MEAN_MOTION_DOT":2.09e-6,"MEAN_MOTION_DDOT":0},{"OBJECT_NAME":"QIANFAN-31","OBJECT_ID":"2024-185N","EPOCH":"2026-03-04T13:03:09.694080","MEAN_MOTION":13.58002612,"ECCENTRICITY":0.00082583,"INCLINATION":88.9722,"RA_OF_ASC_NODE":72.0697,"ARG_OF_PERICENTER":138.2055,"MEAN_ANOMALY":221.9732,"EPHEMERIS_TYPE":0,"CLASSIFICATION_TYPE":"U","NORAD_CAT_ID":61564,"ELEMENT_SET_NO":999,"REV_AT_EPOCH":7926,"BSTAR":0.00030027349,"MEAN_MOTION_DOT":2.29e-6,"MEAN_MOTION_DDOT":0},{"OBJECT_NAME":"QIANFAN-32","OBJECT_ID":"2024-185P","EPOCH":"2026-03-04T12:53:46.985568","MEAN_MOTION":13.50763649,"ECCENTRICITY":0.00096117,"INCLINATION":88.9781,"RA_OF_ASC_NODE":72.558,"ARG_OF_PERICENTER":175.7464,"MEAN_ANOMALY":184.3771,"EPHEMERIS_TYPE":0,"CLASSIFICATION_TYPE":"U","NORAD_CAT_ID":61565,"ELEMENT_SET_NO":999,"REV_AT_EPOCH":7908,"BSTAR":0.00025351401,"MEAN_MOTION_DOT":1.75e-6,"MEAN_MOTION_DDOT":0},{"OBJECT_NAME":"QIANFAN-33","OBJECT_ID":"2024-185Q","EPOCH":"2026-03-04T13:59:03.960672","MEAN_MOTION":13.96621998,"ECCENTRICITY":0.00093125,"INCLINATION":88.9736,"RA_OF_ASC_NODE":69.6657,"ARG_OF_PERICENTER":76.0882,"MEAN_ANOMALY":284.133,"EPHEMERIS_TYPE":0,"CLASSIFICATION_TYPE":"U","NORAD_CAT_ID":61566,"ELEMENT_SET_NO":999,"REV_AT_EPOCH":8058,"BSTAR":0.00037050014,"MEAN_MOTION_DOT":5.27e-6,"MEAN_MOTION_DDOT":0},{"OBJECT_NAME":"QIANFAN-34","OBJECT_ID":"2024-185R","EPOCH":"2026-03-04T13:39:29.603232","MEAN_MOTION":14.02381958,"ECCENTRICITY":0.00082918,"INCLINATION":88.9712,"RA_OF_ASC_NODE":69.1221,"ARG_OF_PERICENTER":79.7995,"MEAN_ANOMALY":280.412,"EPHEMERIS_TYPE":0,"CLASSIFICATION_TYPE":"U","NORAD_CAT_ID":61567,"ELEMENT_SET_NO":999,"REV_AT_EPOCH":8082,"BSTAR":0.00034426056,"MEAN_MOTION_DOT":5.42e-6,"MEAN_MOTION_DDOT":0}]
