QIANFAN-18              
1 60396U 24140T   26063.62788343  .00000126  00000+0  17731-3 0  9993
2 60396  88.9722 290.5030 0013209 318.1148  41.8991 13.51003537 78580
QIANFAN-19              
1 61552U 24185A   26063.58285842  .00000663  00000+0  33903-3 0  9993
2 61552  88.9758  68.5440 0008708  53.5448 306.6540 14.14385922 81232
QIANFAN-20              
1 61553U 24185B   26063.57678765  .00000635  00000+0  35947-3 0  9992
2 61553  88.9755  68.9512 0007903  85.0820 275.1266 14.08932257 81017
QIANFAN-21              
1 61554U 24185C   26063.55044113  .00000850  00000+0  37270-3 0  9995
2 61554  88.9676  67.3778 0012986  95.7355 264.5318 14.22726609 81608
QIANFAN-22              
1 61555U 24185D   26063.56723824  .00000309  00000+0  25561-3 0  9999
2 61555  88.9739  70.2643 0008566 102.5109 257.7021 13.86338157 80279
QIANFAN-23              
1 61556U 24185E   26063.58416530  .00000725  00000+0  35767-3 0  9996
2 61556  88.9750  68.3150 0009629  61.4828 298.7328 14.16390946 81337
QIANFAN-24              
1 61557U 24185F   26063.55444055  .00001010  00000+0  43452-3 0  9995
2 61557  88.9734  67.5897 0010706  41.8984 318.3026 14.23930274 81664
QIANFAN-25              
1 61558U 24185G   26063.56929492  .00000559  00000+0  33244-3 0  9995
2 61558  88.9747  68.9098 0011921  68.2193 292.0257 14.05993995 81003
QIANFAN-26              
1 61559U 24185H   26063.59334476  .00000296  00000+0  28313-3 0  9990
2 61559  88.9745  70.8998 0007637 115.1276 245.0683 13.77860868 79947
QIANFAN-27              
1 61560U 24185J   26063.55849672  .00000699  00000+0  27907-3 0  9992
2 61560  88.9747  67.3328 0008777  35.3752 324.8023 14.27442022 81836
QIANFAN-28              
1 61561U 24185K   26063.56859172  .00001166  00000+0  46249-3 0  9990
2 61561  88.9762  67.3387 0008392  36.3579 323.8184 14.28210263 81850
QIANFAN-29              
1 61562U 24185L   26063.57729117  .00000215  00000+0  31348-3 0  9995
2 61562  88.9718  72.8378 0010267 162.5107 197.6400 13.51043180 78846
QIANFAN-30              
1 61563U 24185M   26063.54004007  .00000209  00000+0  30975-3 0  9995
2 61563  88.9737  72.3985 0008586 146.7370 213.4322 13.50018290 79107
QIANFAN-31              
1 61564U 24185N   26063.54386220  .00000229  00000+0  30027-3 0  9996
2 61564  88.9722  72.0697 0008258 138.2055 221.9732 13.58002612 79266
QIANFAN-32              
1 61565U 24185P   26063.53734937  .00000175  00000+0  25351-3 0  9992
2 61565  88.9781  72.5580 0009611 175.7464 184.3771 13.50763649 79083
QIANFAN-33              
1 61566U 24185Q   26063.58268473  .00000527  00000+0  37050-3 0  9995
2 61566  88.9736  69.6657 0009312  76.0882 284.1330 13.96621998 80588
QIANFAN-34              
1 61567U 24185R   26063.56909263  .00000542  00000+0  34426-3 0  9994
2 61567  88.9712  69.1221 0008291  79.7995 280.4120 14.02381958 80825
